GSAT0218 (GALILEO 22)   
1 43058U 17079D   26090.73218300 -.00000027  00000+0  00000+0 0  9993
2 43058  55.0981 223.6315 0002435 286.1215  73.7895  1.70474692 51691
GOES 17                 
1 43226U 18022A   26091.44885442 -.00000191  00000+0  00000+0 0  9997
2 43226   0.7413  86.8648 0001316 247.1617 287.8673  1.00272001 29659
GSAT0221 (GALILEO 25)   
1 43564U 18060A   26090.04924982 -.00000099  00000+0  00000+0 0  9999
2 43564  57.1934 343.8925 0004721 315.0021  45.0002  1.70475638 47837
GSAT0222 (GALILEO 26)   
1 43565U 18060B   26089.68227263 -.00000099  00000+0  00000+0 0  9996
2 43565  57.1979 343.9056 0000883 305.9782  54.0531  1.70474417 47875
GSAT0219 (GALILEO 23)   
1 43566U 18060C   26091.07639624 -.00000099  00000+0  00000+0 0  9991
2 43566  57.1965 343.8697 0003646 334.2622  25.7627  1.70475311 47874
GSAT0220 (GALILEO 24)   
1 43567U 18060D   26089.53754858 -.00000099  00000+0  00000+0 0  9997
2 43567  57.1962 343.9110 0004630 318.0225  41.9812  1.70475558 47831
BEIDOU-3 M13            
1 43622U 18072A   26090.67726858 -.00000031  00000+0  00000+0 0  9994
2 43622  56.5588  65.2153 0009142 313.1860  46.7176  1.86230867 51217
BEIDOU-3 M14            
1 43623U 18072B   26090.54271970 -.00000030  00000+0  00000+0 0  9990
2 43623  56.5608  65.2138 0006858 334.6270  25.3200  1.86230931 51200
NAVSTAR 77 (USA 289)    
1 43873U 18109A   26090.98671723  .00000031  00000+0  00000+0 0  9996
2 43873  55.6343  95.2303 0037916 198.8263 343.3155  2.00558117 53526
METEOR-M2 2             
1 44387U 19038A   26091.46501519  .00000166  00000+0  91630-4 0  9991
2 44387  98.9107  77.6347 0000464 177.9693 182.1488 14.24343080350371
NAVSTAR 78 (USA 293)    
1 44506U 19056A   26091.48118284 -.00000090  00000+0  00000+0 0  9992
2 44506  55.6715 334.1924 0058668 197.6628 242.8166  2.00568871 48534
BEIDOU-3 M24            
1 44542U 19061A   26087.69915075 -.00000042  00000+0  00000+0 0  9996
2 44542  54.3967 185.4423 0008210  14.2093 345.8181  1.86228873 44296
BEIDOU-3 M23            
1 44543U 19061B   26089.47422823 -.00000028  00000+0  00000+0 0  9993
2 44543  54.3948 185.3509 0004855   1.1455  21.0652  1.86227194 44334
BEIDOU-3 M22            
1 44793U 19078A   26089.14894568 -.00000046  00000+0  00000+0 0  9991
2 44793  54.0073 302.6083 0007475  41.4179 318.6735  1.86231873 43176
BEIDOU-3 M21            
1 44794U 19078B   26089.82603861 -.00000051  00000+0  00000+0 0  9997
2 44794  53.9802 302.5474 0005377  38.3749 321.6964  1.86227505 43192
ELEKTRO-L 3             
1 44903U 19095A   26091.48161456 -.00000105  00000+0  00000+0 0  9992
2 44903   0.0677  59.8303 0001401 293.2942  86.0220  1.00272003 22936
NAVSTAR 79 (USA 304)    
1 45854U 20041A   26091.15288171 -.00000098  00000+0  00000+0 0  9990
2 45854  56.6234  31.9323 0061724 205.2277 299.4827  2.00560260 42491
