[{"OBJECT_NAME":"GSAT0218 (GALILEO 22)","OBJECT_ID":"2017-079D","EPOCH":"2026-03-31T17:34:20.611200","MEAN_MOTION":1.70474692,"ECCENTRICITY":0.0002435,"INCLINATION":55.0981,"RA_OF_ASC_NODE":223.6315,"ARG_OF_PERICENTER":286.1215,"MEAN_ANOMALY":73.7895,"EPHEMERIS_TYPE":0,"CLASSIFICATION_TYPE":"U","NORAD_CAT_ID":43058,"ELEMENT_SET_NO":999,"REV_AT_EPOCH":5169,"BSTAR":0,"MEAN_MOTION_DOT":-2.7e-7,"MEAN_MOTION_DDOT":0},{"OBJECT_NAME":"GOES 17","OBJECT_ID":"2018-022A","EPOCH":"2026-04-01T10:46:21.021888","MEAN_MOTION":1.00272001,"ECCENTRICITY":0.0001316,"INCLINATION":0.7413,"RA_OF_ASC_NODE":86.8648,"ARG_OF_PERICENTER":247.1617,"MEAN_ANOMALY":287.8673,"EPHEMERIS_TYPE":0,"CLASSIFICATION_TYPE":"U","NORAD_CAT_ID":43226,"ELEMENT_SET_NO":999,"REV_AT_EPOCH":2965,"BSTAR":0,"MEAN_MOTION_DOT":-1.91e-6,"MEAN_MOTION_DDOT":0},{"OBJECT_NAME":"GSAT0221 (GALILEO 25)","OBJECT_ID":"2018-060A","EPOCH":"2026-03-31T01:10:55.184448","MEAN_MOTION":1.70475638,"ECCENTRICITY":0.0004721,"INCLINATION":57.1934,"RA_OF_ASC_NODE":343.8925,"ARG_OF_PERICENTER":315.0021,"MEAN_ANOMALY":45.0002,"EPHEMERIS_TYPE":0,"CLASSIFICATION_TYPE":"U","NORAD_CAT_ID":43564,"ELEMENT_SET_NO":999,"REV_AT_EPOCH":4783,"BSTAR":0,"MEAN_MOTION_DOT":-9.9e-7,"MEAN_MOTION_DDOT":0},{"OBJECT_NAME":"GSAT0222 (GALILEO 26)","OBJECT_ID":"2018-060B","EPOCH":"2026-03-30T16:22:28.355232","MEAN_MOTION":1.70474417,"ECCENTRICITY":8.835e-5,"INCLINATION":57.1979,"RA_OF_ASC_NODE":343.9056,"ARG_OF_PERICENTER":305.9782,"MEAN_ANOMALY":54.0531,"EPHEMERIS_TYPE":0,"CLASSIFICATION_TYPE":"U","NORAD_CAT_ID":43565,"ELEMENT_SET_NO":999,"REV_AT_EPOCH":4787,"BSTAR":0,"MEAN_MOTION_DOT":-9.9e-7,"MEAN_MOTION_DDOT":0},{"OBJECT_NAME":"GSAT0219 (GALILEO 23)","OBJECT_ID":"2018-060C","EPOCH":"2026-04-01T01:50:00.635136","MEAN_MOTION":1.70475311,"ECCENTRICITY":0.0003646,"INCLINATION":57.1965,"RA_OF_ASC_NODE":343.8697,"ARG_OF_PERICENTER":334.2622,"MEAN_ANOMALY":25.7627,"EPHEMERIS_TYPE":0,"CLASSIFICATION_TYPE":"U","NORAD_CAT_ID":43566,"ELEMENT_SET_NO":999,"REV_AT_EPOCH":4787,"BSTAR":0,"MEAN_MOTION_DOT":-9.9e-7,"MEAN_MOTION_DDOT":0},{"OBJECT_NAME":"GSAT0220 (GALILEO 24)","OBJECT_ID":"2018-060D","EPOCH":"2026-03-30T12:54:04.197312","MEAN_MOTION":1.70475558,"ECCENTRICITY":0.00046303,"INCLINATION":57.1962,"RA_OF_ASC_NODE":343.911,"ARG_OF_PERICENTER":318.0225,"MEAN_ANOMALY":41.9812,"EPHEMERIS_TYPE":0,"CLASSIFICATION_TYPE":"U","NORAD_CAT_ID":43567,"ELEMENT_SET_NO":999,"REV_AT_EPOCH":4783,"BSTAR":0,"MEAN_MOTION_DOT":-9.9e-7,"MEAN_MOTION_DDOT":0},{"OBJECT_NAME":"BEIDOU-3 M13","OBJECT_ID":"2018-072A","EPOCH":"2026-03-31T16:15:16.005312","MEAN_MOTION":1.86230867,"ECCENTRICITY":0.0009142,"INCLINATION":56.5588,"RA_OF_ASC_NODE":65.2153,"ARG_OF_PERICENTER":313.186,"MEAN_ANOMALY":46.7176,"EPHEMERIS_TYPE":0,"CLASSIFICATION_TYPE":"U","NORAD_CAT_ID":43622,"ELEMENT_SET_NO":999,"REV_AT_EPOCH":5121,"BSTAR":0,"MEAN_MOTION_DOT":-3.1e-7,"MEAN_MOTION_DDOT":0},{"OBJECT_NAME":"BEIDOU-3 M14","OBJECT_ID":"2018-072B","EPOCH":"2026-03-31T13:01:30.982080","MEAN_MOTION":1.86230931,"ECCENTRICITY":0.00068588,"INCLINATION":56.5608,"RA_OF_ASC_NODE":65.2138,"ARG_OF_PERICENTER":334.627,"MEAN_ANOMALY":25.32,"EPHEMERIS_TYPE":0,"CLASSIFICATION_TYPE":"U","NORAD_CAT_ID":43623,"ELEMENT_SET_NO":999,"REV_AT_EPOCH":5120,"BSTAR":0,"MEAN_MOTION_DOT":-3.0e-7,"MEAN_MOTION_DDOT":0},{"OBJECT_NAME":"GPS BIII-1","OBJECT_ID":"2018-109A","EPOCH":"2026-03-31T23:40:52.368672","MEAN_MOTION":2.00558117,"ECCENTRICITY":0.0037916,"INCLINATION":55.6343,"RA_OF_ASC_NODE":95.2303,"ARG_OF_PERICENTER":198.8263,"MEAN_ANOMALY":343.3155,"EPHEMERIS_TYPE":0,"CLASSIFICATION_TYPE":"U","NORAD_CAT_ID":43873,"ELEMENT_SET_NO":999,"REV_AT_EPOCH":5352,"BSTAR":0,"MEAN_MOTION_DOT":3.1e-7,"MEAN_MOTION_DDOT":0},{"OBJECT_NAME":"METEOR-M2 2","OBJECT_ID":"2019-038A","EPOCH":"2026-04-01T11:09:37.312416","MEAN_MOTION":14.2434308,"ECCENTRICITY":4.64e-5,"INCLINATION":98.9107,"RA_OF_ASC_NODE":77.6347,"ARG_OF_PERICENTER":177.9693,"MEAN_ANOMALY":182.1488,"EPHEMERIS_TYPE":0,"CLASSIFICATION_TYPE":"U","NORAD_CAT_ID":44387,"ELEMENT_SET_NO":999,"REV_AT_EPOCH":35037,"BSTAR":9.163e-5,"MEAN_MOTION_DOT":1.66e-6,"MEAN_MOTION_DDOT":0},{"OBJECT_NAME":"GPS BIII-2","OBJECT_ID":"2019-056A","EPOCH":"2026-04-01T11:32:54.197376","MEAN_MOTION":2.00568871,"ECCENTRICITY":0.0058668,"INCLINATION":55.6715,"RA_OF_ASC_NODE":334.1924,"ARG_OF_PERICENTER":197.6628,"MEAN_ANOMALY":242.8166,"EPHEMERIS_TYPE":0,"CLASSIFICATION_TYPE":"U","NORAD_CAT_ID":44506,"ELEMENT_SET_NO":999,"REV_AT_EPOCH":4853,"BSTAR":0,"MEAN_MOTION_DOT":-9.0e-7,"MEAN_MOTION_DDOT":0},{"OBJECT_NAME":"BEIDOU-3 M24","OBJECT_ID":"2019-061A","EPOCH":"2026-03-28T16:46:46.624800","MEAN_MOTION":1.86228873,"ECCENTRICITY":0.00082107,"INCLINATION":54.3967,"RA_OF_ASC_NODE":185.4423,"ARG_OF_PERICENTER":14.2093,"MEAN_ANOMALY":345.8181,"EPHEMERIS_TYPE":0,"CLASSIFICATION_TYPE":"U","NORAD_CAT_ID":44542,"ELEMENT_SET_NO":999,"REV_AT_EPOCH":4429,"BSTAR":0,"MEAN_MOTION_DOT":-4.2e-7,"MEAN_MOTION_DDOT":0},{"OBJECT_NAME":"BEIDOU-3 M23","OBJECT_ID":"2019-061B","EPOCH":"2026-03-30T11:22:53.319072","MEAN_MOTION":1.86227194,"ECCENTRICITY":0.0004855,"INCLINATION":54.3948,"RA_OF_ASC_NODE":185.3509,"ARG_OF_PERICENTER":1.1455,"MEAN_ANOMALY":21.0652,"EPHEMERIS_TYPE":0,"CLASSIFICATION_TYPE":"U","NORAD_CAT_ID":44543,"ELEMENT_SET_NO":999,"REV_AT_EPOCH":4433,"BSTAR":0,"MEAN_MOTION_DOT":-2.8e-7,"MEAN_MOTION_DDOT":0},{"OBJECT_NAME":"BEIDOU-3 M22","OBJECT_ID":"2019-078A","EPOCH":"2026-03-30T03:34:28.906752","MEAN_MOTION":1.86231873,"ECCENTRICITY":0.0007475,"INCLINATION":54.0073,"RA_OF_ASC_NODE":302.6083,"ARG_OF_PERICENTER":41.4179,"MEAN_ANOMALY":318.6735,"EPHEMERIS_TYPE":0,"CLASSIFICATION_TYPE":"U","NORAD_CAT_ID":44793,"ELEMENT_SET_NO":999,"REV_AT_EPOCH":4317,"BSTAR":0,"MEAN_MOTION_DOT":-4.6e-7,"MEAN_MOTION_DDOT":0},{"OBJECT_NAME":"BEIDOU-3 M21","OBJECT_ID":"2019-078B","EPOCH":"2026-03-30T19:49:29.735904","MEAN_MOTION":1.86227505,"ECCENTRICITY":0.00053773,"INCLINATION":53.9802,"RA_OF_ASC_NODE":302.5474,"ARG_OF_PERICENTER":38.3749,"MEAN_ANOMALY":321.6964,"EPHEMERIS_TYPE":0,"CLASSIFICATION_TYPE":"U","NORAD_CAT_ID":44794,"ELEMENT_SET_NO":999,"REV_AT_EPOCH":4319,"BSTAR":0,"MEAN_MOTION_DOT":-5.1e-7,"MEAN_MOTION_DDOT":0},{"OBJECT_NAME":"ELEKTRO-L 3","OBJECT_ID":"2019-095A","EPOCH":"2026-04-01T11:33:31.497984","MEAN_MOTION":1.00272003,"ECCENTRICITY":0.0001401,"INCLINATION":0.0677,"RA_OF_ASC_NODE":59.8303,"ARG_OF_PERICENTER":293.2942,"MEAN_ANOMALY":86.022,"EPHEMERIS_TYPE":0,"CLASSIFICATION_TYPE":"U","NORAD_CAT_ID":44903,"ELEMENT_SET_NO":999,"REV_AT_EPOCH":2293,"BSTAR":0,"MEAN_MOTION_DOT":-1.05e-6,"MEAN_MOTION_DDOT":0},{"OBJECT_NAME":"GPS BIII-3","OBJECT_ID":"2020-041A","EPOCH":"2026-04-01T03:40:08.979744","MEAN_MOTION":2.0056026,"ECCENTRICITY":0.0061724,"INCLINATION":56.6234,"RA_OF_ASC_NODE":31.9323,"ARG_OF_PERICENTER":205.2277,"MEAN_ANOMALY":299.4827,"EPHEMERIS_TYPE":0,"CLASSIFICATION_TYPE":"U","NORAD_CAT_ID":45854,"ELEMENT_SET_NO":999,"REV_AT_EPOCH":4249,"BSTAR":0,"MEAN_MOTION_DOT":-9.8e-7,"MEAN_MOTION_DDOT":0}]
